CCSDS_OMM_VERS,COMMENT,CREATION_DATE,ORIGINATOR,OBJECT_NAME,OBJECT_ID,CENTER_NAME,REF_FRAME,TIME_SYSTEM,MEAN_ELEMENT_THEORY,EPOCH,MEAN_MOTION,ECCENTRICITY,INCLINATION,RA_OF_ASC_NODE,ARG_OF_PERICENTER,MEAN_ANOMALY,EPHEMERIS_TYPE,CLASSIFICATION_TYPE,NORAD_CAT_ID,ELEMENT_SET_NO,REV_AT_EPOCH,BSTAR,MEAN_MOTION_DOT,MEAN_MOTION_DDOT,SEMIMAJOR_AXIS,PERIOD,APOAPSIS,PERIAPSIS,OBJECT_TYPE,RCS_SIZE,COUNTRY_CODE,LAUNCH_DATE,SITE,DECAY_DATE,FILE,GP_ID,TLE_LINE0,TLE_LINE1,TLE_LINE2
"2.0","GENERATED VIA SPACE-TRACK.ORG API","2020-12-12T14:36:10","18 SPCS","BRO-1","2019-054A","EARTH","TEME","UTC","SGP4","2020-12-12T07:37:10.136352","15.08658631","0.00105160","45.0199","67.1948","84.6652","345.6545","0","U","44495","999","7263","0.00004200300000","0.00000420","0.0000000000000","6918.434","95.449","547.575","533.024","PAYLOAD","SMALL","FR","2019-08-19","RLLC","","2901771","167595675","0 BRO-1","1 44495U 19054A   20347.31747843  .00000420  00000-0  42003-4 0  9997","2 44495  45.0199  67.1948 0010516  84.6652 345.6545 15.08658631 72638"
"2.0","GENERATED VIA SPACE-TRACK.ORG API","2020-12-12T22:36:10","18 SPCS","BRO-1","2019-054A","EARTH","TEME","UTC","SGP4","2020-12-12T15:46:30.307872","15.08660105","0.00105180","45.0202","65.3944","85.7124","32.1190","0","U","44495","999","7268","0.00005470500000","0.00000623","0.0000000000000","6918.430","95.448","547.572","533.018","PAYLOAD","SMALL","FR","2019-08-19","RLLC","","2901953","167642937","0 BRO-1","1 44495U 19054A   20347.65729523  .00000623  00000-0  54705-4 0  9996","2 44495  45.0202  65.3944 0010518  85.7124  32.1190 15.08660105 72685"
"2.0","GENERATED VIA SPACE-TRACK.ORG API","2020-12-13T05:18:45","18 SPCS","BRO-1","2019-054A","EARTH","TEME","UTC","SGP4","2020-12-12T15:46:30.307872","15.08660105","0.00105180","45.0202","65.3944","85.7124","32.1190","0","U","44495","999","7268","0.00005470500000","0.00000623","0.0000000000000","6918.430","95.448","547.572","533.018","PAYLOAD","SMALL","FR","2019-08-19","RLLC","","2902034","167685732","0 BRO-1","1 44495U 19054A   20347.65729523  .00000623  00000-0  54705-4 0  9996","2 44495  45.0202  65.3944 0010518  85.7124  32.1190 15.08660105 72685"
"2.0","GENERATED VIA SPACE-TRACK.ORG API","2020-12-13T20:07:11","18 SPCS","BRO-1","2019-054A","EARTH","TEME","UTC","SGP4","2020-12-13T04:23:20.439744","15.08661609","0.00105400","45.0203","62.6075","88.6689","6.6347","0","U","44495","999","7276","0.00006180800000","0.00000736","0.0000000000000","6918.425","95.448","547.582","532.998","PAYLOAD","SMALL","FR","2019-08-19","RLLC","","2902446","167717021","0 BRO-1","1 44495U 19054A   20348.18287546  .00000736  00000-0  61808-4 0  9996","2 44495  45.0203  62.6075 0010540  88.6689   6.6347 15.08661609 72763"
"2.0","GENERATED VIA SPACE-TRACK.ORG API","2020-12-13T14:46:09","18 SPCS","BRO-1","2019-054A","EARTH","TEME","UTC","SGP4","2020-12-13T09:08:34.785888","15.08661706","0.00105030","45.0200","61.5583","90.1739","2.0638","0","U","44495","999","7279","0.00005823600000","0.00000679","0.0000000000000","6918.425","95.448","547.556","533.023","PAYLOAD","SMALL","FR","2019-08-19","RLLC","","2902340","167694523","0 BRO-1","1 44495U 19054A   20348.38095817  .00000679  00000-0  58236-4 0  9993","2 44495  45.0200  61.5583 0010503  90.1739   2.0638 15.08661706 72799"
"2.0","GENERATED VIA SPACE-TRACK.ORG API","2020-12-13T22:36:10","18 SPCS","BRO-1","2019-054A","EARTH","TEME","UTC","SGP4","2020-12-13T15:37:43.912416","15.08663044","0.00104020","45.0201","60.1273","92.8873","28.6184","0","U","44495","999","7283","0.00006960500000","0.00000860","0.0000000000000","6918.421","95.448","547.482","533.089","PAYLOAD","SMALL","FR","2019-08-19","RLLC","","2902550","167742514","0 BRO-1","1 44495U 19054A   20348.65120269  .00000860  00000-0  69605-4 0  9997","2 44495  45.0201  60.1273 0010402  92.8873  28.6184 15.08663044 72839"
"2.0","GENERATED VIA SPACE-TRACK.ORG API","2020-12-14T03:53:25","18 SPCS","BRO-1","2019-054A","EARTH","TEME","UTC","SGP4","2020-12-13T15:37:43.912416","15.08663044","0.00104020","45.0201","60.1273","92.8873","28.6184","0","U","44495","999","7283","0.00006960500000","0.00000860","0.0000000000000","6918.421","95.448","547.482","533.089","PAYLOAD","SMALL","FR","2019-08-19","RLLC","","2902641","167764364","0 BRO-1","1 44495U 19054A   20348.65120269  .00000860  00000-0  69605-4 0  9997","2 44495  45.0201  60.1273 0010402  92.8873  28.6184 15.08663044 72839"
"2.0","GENERATED VIA SPACE-TRACK.ORG API","2020-12-14T06:46:09","18 SPCS","BRO-1","2019-054A","EARTH","TEME","UTC","SGP4","2020-12-14T02:33:21.878208","15.08664464","0.00104130","45.0202","57.7131","95.7167","341.1694","0","U","44495","999","7290","0.00007498600000","0.00000946","0.0000000000000","6918.416","95.448","547.486","533.077","PAYLOAD","SMALL","FR","2019-08-19","RLLC","","2902738","167790047","0 BRO-1","1 44495U 19054A   20349.10650322  .00000946  00000-0  74986-4 0  9999","2 44495  45.0202  57.7131 0010413  95.7167 341.1694 15.08664464 72909"
"2.0","GENERATED VIA SPACE-TRACK.ORG API","2020-12-14T19:41:07","18 SPCS","BRO-1","2019-054A","EARTH","TEME","UTC","SGP4","2020-12-14T11:48:57.066624","15.08664598","0.00104040","45.0201","55.6683","98.5046","276.0284","0","U","44495","999","7296","0.00006741800000","0.00000826","0.0000000000000","6918.416","95.448","547.479","533.083","PAYLOAD","SMALL","FR","2019-08-19","RLLC","","2902965","167816020","0 BRO-1","1 44495U 19054A   20349.49232716  .00000826  00000-0  67418-4 0  9993","2 44495  45.0201  55.6683 0010404  98.5046 276.0284 15.08664598 72969"
"2.0","GENERATED VIA SPACE-TRACK.ORG API","2020-12-14T22:46:10","18 SPCS","BRO-1","2019-054A","EARTH","TEME","UTC","SGP4","2020-12-14T15:30:08.811648","15.08664859","0.00104090","45.0199","54.8533","99.4153","30.2558","0","U","44495","999","7298","0.00006621900000","0.00000806","0.0000000000000","6918.415","95.448","547.482","533.079","PAYLOAD","SMALL","FR","2019-08-19","RLLC","","2903036","167818732","0 BRO-1","1 44495U 19054A   20349.64593532  .00000806  00000-0  66219-4 0  9992","2 44495  45.0199  54.8533 0010409  99.4153  30.2558 15.08664859 72980"
"2.0","GENERATED VIA SPACE-TRACK.ORG API","2020-12-15T06:36:09","18 SPCS","BRO-1","2019-054A","EARTH","TEME","UTC","SGP4","2020-12-15T02:24:12.386304","15.08665385","0.00103120","45.0201","52.4455","100.9027","338.2063","0","U","44495","999","7305","0.00006073900000","0.00000719","0.0000000000000","6918.414","95.448","547.413","533.144","PAYLOAD","SMALL","FR","2019-08-19","RLLC","","2903202","167821681","0 BRO-1","1 44495U 19054A   20350.10014336  .00000719  00000-0  60739-4 0  9999","2 44495  45.0201  52.4455 0010312 100.9027 338.2063 15.08665385 73058"
"2.0","GENERATED VIA SPACE-TRACK.ORG API","2020-12-16T00:49:11","18 SPCS","BRO-1","2019-054A","EARTH","TEME","UTC","SGP4","2020-12-15T13:39:26.028864","15.08664854","0.00103300","45.0198","49.9607","104.5619","3.9041","0","U","44495","999","7312","0.00004698700000","0.00000500","0.0000000000000","6918.415","95.448","547.427","533.134","PAYLOAD","SMALL","FR","2019-08-19","RLLC","","2903454","167846191","0 BRO-1","1 44495U 19054A   20350.56905126  .00000500  00000-0  46987-4 0  9992","2 44495  45.0198  49.9607 0010330 104.5619   3.9041 15.08664854 73120"
"2.0","GENERATED VIA SPACE-TRACK.ORG API","2020-12-15T22:46:10","18 SPCS","BRO-1","2019-054A","EARTH","TEME","UTC","SGP4","2020-12-15T15:20:49.884864","15.08664876","0.00103270","45.0197","49.5871","104.9375","26.3612","0","U","44495","999","7313","0.00004564400000","0.00000478","0.0000000000000","6918.415","95.448","547.425","533.136","PAYLOAD","SMALL","FR","2019-08-19","RLLC","","2903387","167825548","0 BRO-1","1 44495U 19054A   20350.63946626  .00000478  00000-0  45644-4 0  9993","2 44495  45.0197  49.5871 0010327 104.9375  26.3612 15.08664876 73135"
"2.0","GENERATED VIA SPACE-TRACK.ORG API","2020-12-16T04:20:45","18 SPCS","BRO-1","2019-054A","EARTH","TEME","UTC","SGP4","2020-12-15T15:20:49.884864","15.08664876","0.00103270","45.0197","49.5871","104.9375","26.3612","0","U","44495","999","7313","0.00004564400000","0.00000478","0.0000000000000","6918.415","95.448","547.425","533.136","PAYLOAD","SMALL","FR","2019-08-19","RLLC","","2903457","167868292","0 BRO-1","1 44495U 19054A   20350.63946626  .00000478  00000-0  45644-4 0  9993","2 44495  45.0197  49.5871 0010327 104.9375  26.3612 15.08664876 73135"
"2.0","GENERATED VIA SPACE-TRACK.ORG API","2020-12-16T06:56:10","18 SPCS","BRO-1","2019-054A","EARTH","TEME","UTC","SGP4","2020-12-16T03:55:42.320064","15.08665182","0.00102950","45.0198","46.8072","107.7177","353.6522","0","U","44495","999","7321","0.00003908500000","0.00000374","0.0000000000000","6918.414","95.448","547.402","533.157","PAYLOAD","SMALL","FR","2019-08-19","RLLC","","2903578","167873320","0 BRO-1","1 44495U 19054A   20351.16368426  .00000374  00000-0  39085-4 0  9995","2 44495  45.0198  46.8072 0010295 107.7177 353.6522 15.08665182 73210"
"2.0","GENERATED VIA SPACE-TRACK.ORG API","2020-12-16T14:36:10","18 SPCS","BRO-1","2019-054A","EARTH","TEME","UTC","SGP4","2020-12-16T13:40:29.377344","15.08664300","0.00103770","45.0201","44.6540","109.8760","39.3764","0","U","44495","999","7327","0.00002411800000","0.00000135","0.0000000000000","6918.417","95.448","547.461","533.103","PAYLOAD","SMALL","FR","2019-08-19","RLLC","","2903833","167878081","0 BRO-1","1 44495U 19054A   20351.56978446  .00000135  00000-0  24118-4 0  9994","2 44495  45.0201  44.6540 0010377 109.8760  39.3764 15.08664300 73276"
"2.0","GENERATED VIA SPACE-TRACK.ORG API","2020-12-16T19:47:53","18 SPCS","BRO-1","2019-054A","EARTH","TEME","UTC","SGP4","2020-12-16T13:40:29.377344","15.08664300","0.00103770","45.0201","44.6540","109.8760","39.3764","0","U","44495","999","7327","0.00002411800000","0.00000135","0.0000000000000","6918.417","95.448","547.461","533.103","PAYLOAD","SMALL","FR","2019-08-19","RLLC","","2903946","167900077","0 BRO-1","1 44495U 19054A   20351.56978446  .00000135  00000-0  24118-4 0  9994","2 44495  45.0201  44.6540 0010377 109.8760  39.3764 15.08664300 73276"
